NORAD_CAT_ID,OBJECT_NAME,OBJECT_TYPE,EPOCH,MEAN_MOTION,ECCENTRICITY,INCLINATION,RA_OF_ASC_NODE,ARG_OF_PERICENTER,MEAN_ANOMALY,BSTAR,MEAN_MOTION_DOT,MEAN_MOTION_DDOT,TLE_LINE0,TLE_LINE1,TLE_LINE2,SEMIMAJOR_AXIS,PERIOD,APOGEE,PERIGEE,DECAYED
53798.0,STARLINK-4712,PAYLOAD,2022-10-22 14:00:01,15.73208537,0.0001849,53.2152,61.593,30.3091,339.4788,0.00017155,0.00023532,0.0,0 STARLINK-4712,1 53798U 22111AB  22295.58334491  .00023532  00000-0  17155-3 0  9993,2 53798  53.2152  61.5930 0001849  30.3091 339.4788 15.73208537  6452,6727.871,91.533,350.98,348.492,0.0
53798.0,STARLINK-4712,PAYLOAD,2022-10-22 22:00:00,15.73261378,0.0002018,53.2153,59.9435,28.0669,70.6814,-0.00022069,-0.00031562,0.0,0 STARLINK-4712,1 53798U 22111AB  22295.91667824 -.00031562  00000-0 -22069-3 0  9993,2 53798  53.2153  59.9435 0002018  28.0669  70.6814 15.73261378  1303,6727.72,91.53,350.9430000000001,348.228,0.0
53798.0,STARLINK-4712,PAYLOAD,2022-10-23 14:00:01,15.73225133,0.0002112,53.2158,56.6441,30.8889,245.7831,-0.00032949,-0.00046661,0.0,0 STARLINK-4712,1 53798U 22111AB  22296.58334491 -.00046661  00000-0 -32949-3 0  9992,2 53798  53.2158  56.6441 0002112  30.8889 245.7831 15.73225133  6611,6727.824000000001,91.532,351.1090000000001,348.26800000000014,0.0
53798.0,STARLINK-4712,PAYLOAD,2022-10-23 22:00:00,15.73190522,0.0002112,53.2158,54.995,25.1041,340.4993,0.00016967,0.00023249,0.0,0 STARLINK-4712,1 53798U 22111AB  22296.91667824  .00023249  00000-0  16967-3 0  9995,2 53798  53.2158  54.9950 0002112  25.1041 340.4993 15.73190522  1300,6727.922,91.534,351.208,348.366,0.0
53798.0,STARLINK-4712,PAYLOAD,2022-10-24 06:00:00,15.73307127,0.0001815,53.2165,53.3442,26.1968,68.3446,-0.0047321,-0.00620852,0.0,0 STARLINK-4712,1 53798U 22111AB  22297.25001157 -.00620852  00000-0 -47321-2 0  9996,2 53798  53.2165  53.3442 0001815  26.1968  68.3446 15.73307127  6715,6727.59,91.527,350.676,348.2340000000001,0.0
53798.0,STARLINK-4712,PAYLOAD,2022-10-24 14:00:01,15.73059651,0.0001821,53.2172,51.6973,35.457,147.833,-0.0087023,-0.01088749,0.0,0 STARLINK-4712,1 53798U 22111AB  22297.58334491 -.01088749  00000-0 -87023-2 0  9999,2 53798  53.2172  51.6973 0001821  35.4570 147.8330 15.73059651  1303,6728.295,91.541,351.386,348.935,0.0
53798.0,STARLINK-4712,PAYLOAD,2022-10-24 22:00:00,15.72322888,0.0003406,53.2168,50.0491,284.2465,347.3003,-0.010008,-0.012205,0.0,0 STARLINK-4712,1 53798U 22111AB  22297.91667824 -.01220500  00000-0 -10008-1 0  9996,2 53798  53.2168  50.0491 0003406 284.2465 347.3003 15.72322888  1302,6730.397,91.584,354.55400000000014,349.97,0.0
53798.0,STARLINK-4712,PAYLOAD,2022-10-25 00:00:00,15.72061496,0.0004301999999999,53.2173,49.6369,279.9081,103.584,-0.0093425,-0.01117777,0.0,0 STARLINK-4712,1 53798U 22111AB  22298.00001157 -.01117777  00000-0 -93425-2 0  9994,2 53798  53.2173  49.6369 0004302 279.9081 103.5840 15.72061496  6836,6731.143,91.599,355.904,350.112,0.0
53798.0,STARLINK-4712,PAYLOAD,2022-10-25 14:00:01,15.70659644,0.0001369,53.2175,46.7586,5.9491,79.2578,-0.010218,-0.01146482,0.0,0 STARLINK-4712,1 53798U 22111AB  22298.58334491 -.01146482  00000-0 -10218-1 0  9990,2 53798  53.2175  46.7586 0001369   5.9491  79.2578 15.70659644  1309,6735.148,91.681,357.935,356.091,0.0
53798.0,STARLINK-4712,PAYLOAD,2022-10-25 22:00:01,15.69847044,0.0001701,53.217,45.1159,36.9881,133.6396,-0.010583,-0.01166693,0.0,0 STARLINK-4712,1 53798U 22111AB  22298.91668981 -.01166693  00000-0 -10583-1 0  9992,2 53798  53.2170  45.1159 0001701  36.9881 133.6396 15.69847044  1304,6737.472,91.729,360.483,358.191,0.0
53798.0,STARLINK-4712,PAYLOAD,2022-10-26 14:00:01,15.68208562,0.0001314,53.2174,41.8378,43.4357,294.9087,-0.011156,-0.01150341,0.0,0 STARLINK-4712,1 53798U 22111AB  22299.58334491 -.01150341  00000-0 -11156-1 0  9992,2 53798  53.2174  41.8378 0001314  43.4357 294.9087 15.68208562  1308,6742.1640000000025,91.825,364.915,363.143,0.0
53798.0,STARLINK-4712,PAYLOAD,2022-10-26 22:00:00,15.67386809,0.0001391,53.2172,40.2011,40.1645,20.6058,-0.011404,-0.01138098,0.0,0 STARLINK-4712,1 53798U 22111AB  22299.91667824 -.01138098  00000-0 -11404-1 0  9999,2 53798  53.2172  40.2011 0001391  40.1645  20.6058 15.67386809  1304,6744.52,91.873,367.323,365.447,0.0
53798.0,STARLINK-4712,PAYLOAD,2022-10-27 14:00:01,15.65776731,0.0001551,53.2175,36.9347,48.1772,174.5598,-0.012442,-0.01160606,0.0,0 STARLINK-4712,1 53798U 22111AB  22300.58335648 -.01160606  00000-0 -12442-1 0  9994,2 53798  53.2175  36.9347 0001551  48.1772 174.5598 15.65776731  7240,6749.143,91.967,372.055,369.961,0.0
53798.0,STARLINK-4712,PAYLOAD,2022-10-27 22:00:00,15.64964777,0.0001688,53.2172,35.3036,31.303,270.8576,-0.012899,-0.01164181,0.0,0 STARLINK-4712,1 53798U 22111AB  22300.91667824 -.01164181  00000-0 -12899-1 0  9993,2 53798  53.2172  35.3036 0001688  31.3030 270.8576 15.64964777  1302,6751.477,92.015,374.482,372.202,0.0
53798.0,STARLINK-4712,PAYLOAD,2022-10-28 14:00:01,15.63326303,0.000137,53.2176,32.0496,39.3072,58.9669,-0.013568,-0.01148593,0.0,0 STARLINK-4712,1 53798U 22111AB  22301.58335648 -.01148593  00000-0 -13568-1 0  9996,2 53798  53.2176  32.0496 0001370  39.3072  58.9669 15.63326303  1306,6756.194,92.111,378.984,377.133,0.0
53798.0,STARLINK-4712,PAYLOAD,2022-10-28 22:00:01,15.62506714,0.0001646,53.2171,30.4242,40.1566,134.6756,-0.0138979999999999,-0.01140072,0.0,0 STARLINK-4712,1 53798U 22111AB  22301.91668981 -.01140072  00000-0 -13898-1 0  9992,2 53798  53.2171  30.4242 0001646  40.1566 134.6756 15.62506714  1300,6758.556,92.16,381.533,379.3080000000001,0.0
53798.0,STARLINK-4712,PAYLOAD,2022-10-29 12:00:00,15.61102885,0.0001367,53.2172,27.5866,53.0483,163.3252,-0.015027,-0.0116414,0.0,0 STARLINK-4712,1 53798U 22111AB  22302.50001157 -.01164140  00000-0 -15027-1 0  9992,2 53798  53.2172  27.5866 0001367  53.0483 163.3252 15.61102885  1301,6762.607,92.242,385.397,383.548,0.0
53798.0,STARLINK-4712,PAYLOAD,2022-10-29 22:00:01,15.60076797,0.0001479,53.2172,25.5625,33.8728,4.7514,-0.0154849999999999,-0.01154004,0.0,0 STARLINK-4712,1 53798U 22111AB  22302.91668981 -.01154004  00000-0 -15485-1 0  9997,2 53798  53.2172  25.5625 0001479  33.8728   4.7514 15.60076797  1304,6765.571999999999,92.303,388.43800000000016,386.436,0.0
53798.0,STARLINK-4712,PAYLOAD,2022-10-30 00:00:00,15.59856455,0.0001591,53.2175,25.1577,39.7705,107.0495,-0.0152629999999999,-0.01130348,0.0,0 STARLINK-4712,1 53798U 22111AB  22303.00001157 -.01130348  00000-0 -15263-1 0  9993,2 53798  53.2175  25.1577 0001591  39.7705 107.0495 15.59856455  7614,6766.209,92.316,389.151,386.99800000000016,0.0
53798.0,STARLINK-4712,PAYLOAD,2022-10-30 14:00:01,15.58434211,0.000156,53.2177,22.3324,48.8876,133.9869,-0.0161389999999999,-0.01131743,0.0,0 STARLINK-4712,1 53798U 22111AB  22303.58334491 -.01131743  00000-0 -16139-1 0  9999,2 53798  53.2177  22.3324 0001560  48.8876 133.9869 15.58434211  1305,6770.325,92.4,393.246,391.134,0.0
53798.0,STARLINK-4712,PAYLOAD,2022-10-30 22:00:01,15.57624403,0.0001533,53.2173,20.7184,38.928,214.6993,-0.016766,-0.01139331,0.0,0 STARLINK-4712,1 53798U 22111AB  22303.91668981 -.01139331  00000-0 -16766-1 0  9997,2 53798  53.2173  20.7184 0001533  38.9280 214.6993 15.57624403  1304,6772.672,92.448,395.575,393.49800000000016,0.0
53798.0,STARLINK-4712,PAYLOAD,2022-10-31 14:00:01,15.55997291,0.0001571,53.2175,17.5004,38.7888,353.2141,-0.017806,-0.01138359,0.0,0 STARLINK-4712,1 53798U 22111AB  22304.58334491 -.01138359  00000-0 -17806-1 0  9992,2 53798  53.2175  17.5004 0001571  38.7888 353.2141 15.55997291  1306,6777.392,92.545,400.322,398.192,0.0
53798.0,STARLINK-4712,PAYLOAD,2022-10-31 22:00:01,15.55190397,0.0001718,53.2172,15.8922,35.2021,64.6174,-0.018499,-0.0114682,0.0,0 STARLINK-4712,1 53798U 22111AB  22304.91668981 -.01146820  00000-0 -18499-1 0  9994,2 53798  53.2172  15.8922 0001718  35.2021  64.6174 15.55190397  7911,6779.736,92.593,402.766,400.436,0.0
53798.0,STARLINK-4712,PAYLOAD,2022-11-01 14:00:01,15.53555737,0.0001652,53.2173,12.686,40.8165,191.5152,-0.019436,-0.01135596,0.0,0 STARLINK-4712,1 53798U 22111AB  22305.58334491 -.01135596  00000-0 -19436-1 0  9994,2 53798  53.2173  12.6860 0001652  40.8165 191.5152 15.53555737  1300,6784.491,92.691,407.477,405.235,0.0
53798.0,STARLINK-4712,PAYLOAD,2022-11-01 22:00:00,15.52739215,0.0001512,53.2174,11.0835,38.7371,258.4182,-0.019981,-0.01133325,0.0,0 STARLINK-4712,1 53798U 22111AB  22305.91667824 -.01133325  00000-0 -19981-1 0  9993,2 53798  53.2174  11.0835 0001512  38.7371 258.4182 15.52739215  8077,6786.869000000002,92.739,409.761,407.708,0.0
53798.0,STARLINK-4712,PAYLOAD,2022-11-02 14:00:01,15.51085943,0.0001704,53.2176,7.8892,29.9514,33.917,-0.02012,-0.01080376,0.0,0 STARLINK-4712,1 53798U 22111AB  22306.58334491 -.01080376  00000-0 -20120-1 0  9992,2 53798  53.2176   7.8892 0001704  29.9514  33.9170 15.51085943  1302,6791.691,92.838,414.714,412.399,0.0
53798.0,STARLINK-4712,PAYLOAD,2022-11-02 22:00:00,15.50198933,0.0001788,53.2176,6.2924,27.2163,98.5445,-0.0077496,-0.00422112,0.0,0 STARLINK-4712,1 53798U 22111AB  22306.91667824 -.00422112  00000-0 -77496-2 0  9994,2 53798  53.2176   6.2924 0001788  27.2163  98.5445 15.50198933  8227,6794.281999999997,92.891,417.362,414.932,0.0
53798.0,STARLINK-4712,PAYLOAD,2022-11-03 08:00:01,15.498888699999998,0.0001462,53.2163,4.3019,329.4968,322.3926,-0.00012714,-7.661e-05,0.0,0 STARLINK-4712,1 53798U 22111AB  22307.33334491 -.00007661  00000-0 -12714-3 0  9993,2 53798  53.2163   4.3019 0001462 329.4968 322.3926 15.49888870  8299,6795.188,92.91,418.046,416.059,0.0
53798.0,STARLINK-4712,PAYLOAD,2022-11-03 14:00:01,15.49867316,0.0001641999999999,53.2161,3.1083,334.6409,272.9442,0.0012267,0.0006975,0.0,0 STARLINK-4712,1 53798U 22111AB  22307.58334491  .00069750  00000-0  12267-2 0  9997,2 53798  53.2161   3.1083 0001642 334.6409 272.9442 15.49867316  1303,6795.251,92.911,418.232,416.0,0.0
